GLOBALSTAR M063 [+]     
1 26081U 00008A   24059.90866162 -.00000055  00000+0  40100-3 0  9991
2 26081  51.9940 280.6339 0005327 118.0329 342.8920 11.86151537101298
GLOBALSTAR M062 [-]     
1 26082U 00008B   24059.72600332 -.00000034  00000+0  45797-3 0  9991
2 26082  51.9852  50.9853 0007121 177.7504 353.0971 12.43430197437592
GLOBALSTAR M060 [-]     
1 26083U 00008C   24059.84687563 -.00000131  00000+0 -40299-3 0  9997
2 26083  52.0031 303.5370 0002573 239.5151 199.9297 12.17626793 94582
GLOBALSTAR M064 [-]     
1 26084U 00008D   24059.90268179 -.00000065  00000+0  25969-3 0  9995
2 26084  52.0052  25.0652 0001223 222.2954 137.7785 11.88515823110709
GLOBALSTAR M065 [+]     
1 31571U 07020A   24059.71731056 -.00000073  00000+0  17171-3 0  9996
2 31571  51.9870 230.3457 0009882 340.7504  33.4955 12.61963532773502
GLOBALSTAR M069 [+]     
1 31573U 07020C   24059.76707278 -.00000068  00000+0  20194-3 0  9995
2 31573  51.9938 186.1613 0001468 122.8383  24.4539 12.62257226774637
GLOBALSTAR M072 [+]     
1 31574U 07020D   24060.08339212 -.00000083  00000+0  11799-3 0  9990
2 31574  52.0074 281.0401 0001245  71.2150  94.2755 12.62268338773105
GLOBALSTAR M071 [P]     
1 31576U 07020F   24059.68473527 -.00000075  00000+0  16179-3 0  9992
2 31576  52.0052 191.4915 0001874 131.9452 241.0105 12.62267846435811
